ONEWEB-0387             
1 49313U 21090AL  26011.77737197 -.00000019  00000+0 -77758-4 0  9999
2 49313  87.9221 305.6677 0001892  85.0119 275.1230 13.20772019209170
ONEWEB-0388             
1 49314U 21090AM  26011.92198879  .00000061  00000+0  11961-3 0  9993
2 49314  87.9221 336.0683 0001930  80.4078 279.7273 13.19726087205807
ONEWEB-0389             
1 50469U 21132A   26011.99802048  .00000087  00000+0  19021-3 0  9993
2 50469  87.9089  36.9165 0002170  96.8665 263.2713 13.17648878197517
ONEWEB-0390             
1 50470U 21132B   26011.54408479  .00000070  00000+0  14750-3 0  9992
2 50470  87.9086  37.0079 0001665 101.8549 258.2770 13.17648154197455
ONEWEB-0391             
1 50471U 21132C   26012.00139811  .00000050  00000+0  94789-4 0  9995
2 50471  87.9085  36.9261 0002469 108.8989 251.2411 13.17650212197514
ONEWEB-0392             
1 50472U 21132D   26011.57614928  .00000038  00000+0  63793-4 0  9991
2 50472  87.9095  36.9659 0002140  99.0418 261.0956 13.17647809197499
ONEWEB-0393             
1 50473U 21132E   26011.77709328  .00000096  00000+0  21384-3 0  9996
2 50473  87.9095  36.9485 0001986  96.5521 263.5837 13.17648507197515
ONEWEB-0394             
1 50474U 21132F   26011.94400393  .00000020  00000+0  19042-4 0  9992
2 50474  87.9185   6.4607 0001948  87.6274 272.5081 13.18684546201003
